$$SOE
2460147.500000000, A.D. 2023-Jul-22 00:00:00.0000, 8.993382333867259E+07, -3.166335346884933E+08, -4.245865793332636E+06,
2460154.500000000, A.D. 2023-Jul-29 00:00:00.0000, 1.021906949464531E+08, -3.121595014516190E+08, -3.870718747556716E+06,
2460161.500000000, A.D. 2023-Aug-05 00:00:00.0000, 1.143075717181334E+08, -3.072579834444018E+08, -3.490270430253252E+06,
2460168.500000000, A.D. 2023-Aug-12 00:00:00.0000, 1.262669523790996E+08, -3.019332518453463E+08, -3.105013974431694E+06,
2460175.500000000, A.D. 2023-Aug-19 00:00:00.0000, 1.380514654329101E+08, -2.961904907653853E+08, -2.715457798286989E+06,
2460182.500000000, A.D. 2023-Aug-26 00:00:00.0000, 1.496439306309775E+08, -2.900357953590539E+08, -2.322124130991161E+06,
2460189.500000000, A.D. 2023-Sep-02 00:00:00.0000, 1.610274207500725E+08, -2.834761647598920E+08, -1.925547431568548E+06,
2460196.500000000, A.D. 2023-Sep-09 00:00:00.0000, 1.721853231629101E+08, -2.765194898078700E+08, -1.526272718344152E+06,
2460203.500000000, A.D. 2023-Sep-16 00:00:00.0000, 1.831014008090673E+08, -2.691745356151223E+08, -1.124853841664344E+06,
2460210.500000000, A.D. 2023-Sep-23 00:00:00.0000, 1.937598524216836E+08, -2.614509187420871E+08, -7.218517283254713E+05,
2460217.500000000, A.D. 2023-Sep-30 00:00:00.0000, 2.041453711154741E+08, -2.533590779243408E+08, -3.178324840656519E+05,
2460224.500000000, A.D. 2023-Oct-07 00:00:00.0000, 2.142431984412605E+08, -2.449102390908449E+08, 8.663480113327503E+04,
2460231.500000000, A.D. 2023-Oct-14 00:00:00.0000, 2.240391744313074E+08, -2.361163782464339E+08, 4.909801612293422E+05,
2460238.500000000, A.D. 2023-Oct-21 00:00:00.0000, 2.335197863872550E+08, -2.269901809382755E+08, 8.946345927441567E+05,
2460245.500000000, A.D. 2023-Oct-28 00:00:00.0000, 2.426722145554493E+08, -2.175449964298635E+08, 1.297031921663612E+06,
2460252.500000000, A.D. 2023-Nov-04 00:00:00.0000, 2.514843730590359E+08, -2.077947877876251E+08, 1.697610733114839E+06,
2460259.500000000, A.D. 2023-Nov-11 00:00:00.0000, 2.599449459406684E+08, -1.977540789557827E+08, 2.095816281746149E+06,
2460266.500000000, A.D. 2023-Nov-18 00:00:00.0000, 2.680434182744156E+08, -1.874378993923000E+08, 2.491102341441892E+06,
2460273.500000000, A.D. 2023-Nov-25 00:00:00.0000, 2.757701022252204E+08, -1.768617267758869E+08, 2.882932974644072E+06,
2460280.500000000, A.D. 2023-Dec-02 00:00:00.0000, 2.831161579572026E+08, -1.660414283424229E+08, 3.270784204119690E+06,
2460287.500000000, A.D. 2023-Dec-09 00:00:00.0000, 2.900736094078911E+08, -1.549932014607254E+08, 3.654145562674277E+06,
2460294.500000000, A.D. 2023-Dec-16 00:00:00.0000, 2.966353552207413E+08, -1.437335139776275E+08, 4.032521484150879E+06,
2460301.500000000, A.D. 2023-Dec-23 00:00:00.0000, 3.027951752583164E+08, -1.322790441714545E+08, 4.405432550967187E+06,
2460308.500000000, A.D. 2023-Dec-30 00:00:00.0000, 3.085477314960008E+08, -1.206466197745158E+08, 4.772416800682425E+06,
2460315.500000000, A.D. 2024-Jan-06 00:00:00.0000, 3.138885617141647E+08, -1.088531589090702E+08, 5.133031056212269E+06,
2460322.500000000, A.D. 2024-Jan-13 00:00:00.0000, 3.188140693939963E+08, -9.691561518521720E+07, 5.486851836735021E+06,
2460329.500000000, A.D. 2024-Jan-20 00:00:00.0000, 3.233215113185626E+08, -8.485092427279714E+07, 5.833475987042926E+06,
2460336.500000000, A.D. 2024-Jan-27 00:00:00.0000, 3.274089811680933E+08, -7.267595164889169E+07, 6.172521264921576E+06,
2460343.500000000, A.D. 2024-Feb-03 00:00:00.0000, 3.310753890267760E+08, -6.040744277658055E+07, 6.503626850139899E+06,
2460350.500000000, A.D. 2024-Feb-10 00:00:00.0000, 3.343204374439179E+08, -4.806197626320109E+07, 6.826453729020642E+06,
2460357.500000000, A.D. 2024-Feb-17 00:00:00.0000, 3.371445945669929E+08, -3.565592019688037E+07, 7.140684947053738E+06,
2460364.500000000, A.D. 2024-Feb-24 00:00:00.0000, 3.395490647682814E+08, -2.320539180364002E+07, 7.446025733221414E+06,
2460371.500000000, A.D. 2024-Mar-02 00:00:00.0000, 3.415357571811052E+08, -1.072622056706260E+07, 7.742203497503528E+06,
2460378.500000000, A.D. 2024-Mar-09 00:00:00.0000, 3.431072526654302E+08, 1.766085061487611E+06, 8.028967691185790E+06,
2460385.500000000, A.D. 2024-Mar-16 00:00:00.0000, 3.442667699649720E+08, 1.425636753610936E+07, 8.306089517441479E+06,
2460392.500000000, A.D. 2024-Mar-23 00:00:00.0000, 3.450181313017673E+08, 2.672984780223041E+07, 8.573361600565586E+06,
2460399.500000000, A.D. 2024-Mar-30 00:00:00.0000, 3.453657255075546E+08, 3.917215062576804E+07, 8.830597827280398E+06,
2460406.500000000, A.D. 2024-Apr-06 00:00:00.0000, 3.453144692708973E+08, 5.156932437834997E+07, 9.077633071214177E+06,
2460413.500000000, A.D. 2024-Apr-13 00:00:00.0000, 3.448697703396187E+08, 6.390785622013938E+07, 9.314322551539671E+06,
2460420.500000000, A.D. 2024-Apr-20 00:00:00.0000, 3.440374919873969E+08, 7.617468548774332E+07, 9.540541140339036E+06,
2460427.500000000, A.D. 2024-Apr-27 00:00:00.0000, 3.428239174639505E+08, 8.835721487351578E+07, 9.756182720305145E+06,
2460434.500000000, A.D. 2024-May-04 00:00:00.0000, 3.412357147233182E+08, 1.004433188540138E+08, 9.961159534698017E+06,
2460441.500000000, A.D. 2024-May-11 00:00:00.0000, 3.392799018457896E+08, 1.124213494407068E+08, 1.015540150631459E+07,
2460448.500000000, A.D. 2024-May-18 00:00:00.0000, 3.369638133890494E+08, 1.242801394614888E+08, 1.033885552692806E+07,
2460455.500000000, A.D. 2024-May-25 00:00:00.0000, 3.342950678282689E+08, 1.360090035589880E+08, 1.051148472213203E+07,
2460462.500000000, A.D. 2024-Jun-01 00:00:00.0000, 3.312815362616499E+08, 1.475977370403323E+08, 1.067326768920444E+07,
2460469.500000000, A.D. 2024-Jun-08 00:00:00.0000, 3.279313127230862E+08, 1.590366127417526E+08, 1.082419769041795E+07,
2460476.500000000, A.D. 2024-Jun-15 00:00:00.0000, 3.242526865716648E+08, 1.703163766313109E+08, 1.096428181499165E+07,
2460483.500000000, A.D. 2024-Jun-22 00:00:00.0000, 3.202541159950809E+08, 1.814282434978588E+08, 1.109354030209140E+07,
2460490.500000000, A.D. 2024-Jun-29 00:00:00.0000, 3.159442005319813E+08, 1.923638910800219E+08, 1.121200607547815E+07,
2460497.500000000, A.D. 2024-Jul-06 00:00:00.0000, 3.113316552784494E+08, 2.031154503298807E+08, 1.131972404942860E+07,
2460504.500000000, A.D. 2024-Jul-13 00:00:00.0000, 3.064252887281146E+08, 2.136754947866104E+08, 1.141675026040575E+07,
2460511.500000000, A.D. 2024-Jul-20 00:00:00.0000, 3.012339822447119E+08, 2.240370303535869E+08, 1.150315110291418E+07,
2460518.500000000, A.D. 2024-Jul-27 00:00:00.0000, 2.957666704883065E+08, 2.341934846567767E+08, 1.157900265365401E+07,
2460525.500000000, A.D. 2024-Aug-03 00:00:00.0000, 2.900323230378489E+08, 2.441386957365640E+08, 1.164439003014606E+07,
2460532.500000000, A.D. 2024-Aug-10 00:00:00.0000, 2.840399273381430E+08, 2.538669001854514E+08, 1.169940676960093E+07,
2460539.500000000, A.D. 2024-Aug-17 00:00:00.0000, 2.777984729746429E+08, 2.633727208604225E+08, 1.174415422640342E+07,
2460546.500000000, A.D. 2024-Aug-24 00:00:00.0000, 2.713169372550466E+08, 2.726511542453319E+08, 1.177874098444031E+07,
2460553.500000000, A.D. 2024-Aug-31 00:00:00.0000, 2.646042721608104E+08, 2.816975574905828E+08, 1.180328226899563E+07,
2460560.500000000, A.D. 2024-Sep-07 00:00:00.0000, 2.576693929797129E+08, 2.905076353367846E+08, 1.181789933512299E+07,
2460567.500000000, A.D. 2024-Sep-14 00:00:00.0000, 2.505211686492809E+08, 2.990774279883443E+08, 1.182271890567352E+07,
2460574.500000000, A.D. 2024-Sep-21 00:00:00.0000, 2.431684117216182E+08, 3.074033004083288E+08, 1.181787287807806E+07,
2460581.500000000, A.D. 2024-Sep-28 00:00:00.0000, 2.356198673994592E+08, 3.154819298641350E+08, 1.180349808095306E+07,
2460588.500000000, A.D. 2024-Oct-05 00:00:00.0000, 2.278842052588310E+08, 3.233102917790533E+08, 1.177973574395044E+07,
2460595.500000000, A.D. 2024-Oct-12 00:00:00.0000, 2.199700132424966E+08, 3.308856469097636E+08, 1.174673095642845E+07,
2460602.500000000, A.D. 2024-Oct-19 00:00:00.0000, 2.118857921150661E+08, 3.382055296128683E+08, 1.170463225263014E+07,
2460609.500000000, A.D. 2024-Oct-26 00:00:00.0000, 2.036399502916973E+08, 3.452677364296696E+08, 1.165359126025091E+07,
2460616.500000000, A.D. 2024-Nov-02 00:00:00.0000, 1.952407992447753E+08, 3.520703148665121E+08, 1.159376237598157E+07,
2460623.500000000, A.D. 2024-Nov-09 00:00:00.0000, 1.866965495343095E+08, 3.586115524120427E+08, 1.152530246007927E+07,
2460630.500000000, A.D. 2024-Nov-16 00:00:00.0000, 1.780153074389682E+08, 3.648899658076087E+08, 1.144837054676940E+07,
2460637.500000000, A.D. 2024-Nov-23 00:00:00.0000, 1.692050721873607E+08, 3.709042905327267E+08, 1.136312756121318E+07,
2460644.500000000, A.D. 2024-Nov-30 00:00:00.0000, 1.602737339520510E+08, 3.766534704716680E+08, 1.126973601957294E+07,
2460651.500000000, A.D. 2024-Dec-07 00:00:00.0000, 1.512290729820606E+08, 3.821366481888226E+08, 1.116835970722288E+07,
2460658.500000000, A.D. 2024-Dec-14 00:00:00.0000, 1.420787591449894E+08, 3.873531570414118E+08, 1.105916349728331E+07,
2460665.500000000, A.D. 2024-Dec-21 00:00:00.0000, 1.328303495205493E+08, 3.923025138880273E+08, 1.094231341981378E+07,
2460672.500000000, A.D. 2024-Dec-28 00:00:00.0000, 1.234912859781648E+08, 3.969844094274907E+08, 1.081797655807230E+07,
2460679.500000000, A.D. 2025-Jan-04 00:00:00.0000, 1.140688953047606E+08, 4.013986985493343E+08, 1.068632072736868E+07,
2460686.500000000, A.D. 2025-Jan-11 00:00:00.0000, 1.045703900345833E+08, 4.055453923526138E+08, 1.054751423821953E+07,
2460693.500000000, A.D. 2025-Jan-18 00:00:00.0000, 9.500286903629322E+07, 4.094246509062642E+08, 1.040172575201398E+07,
2460700.500000000, A.D. 2025-Jan-25 00:00:00.0000, 8.537331807333070E+07, 4.130367762673505E+08, 1.024912416741690E+07,
2460707.500000000, A.D. 2025-Feb-01 00:00:00.0000, 7.568861049994445E+07, 4.163822057179420E+08, 1.008987851718614E+07,
2460714.500000000, A.D. 2025-Feb-08 00:00:00.0000, 6.595550812522607E+07, 4.194615052327864E+08, 9.924157871406406E+06,
$$EOE